SKYKRAFT-1A             
1 55054U 23001AX  26068.71064616  .00008177  00000+0  30069-3 0  9991
2 55054  97.3349 127.6290 0011277 121.5092 238.7251 15.28083228176529
STARLINK-31312          
1 59152U 24044A   26068.31670944  .00000647  00000+0  33040-4 0  9992
2 59152  43.0017  58.4291 0001232 266.5226  93.5484 15.27574682114124
